OBJECT_NAME,OBJECT_ID,EPOCH,MEAN_MOTION,ECCENTRICITY,INCLINATION,RA_OF_ASC_NODE,ARG_OF_PERICENTER,MEAN_ANOMALY,EPHEMERIS_TYPE,CLASSIFICATION_TYPE,NORAD_CAT_ID,ELEMENT_SET_NO,REV_AT_EPOCH,BSTAR,MEAN_MOTION_DOT,MEAN_MOTION_DDOT
ONEWEB-0616,2023-004T,2026-06-16T20:08:34.749312,13.17648808,.0000976,87.9133,5.9370,76.3084,283.8156,0,U,55157,999,16765,.25349E-3,.111E-5,0
ONEWEB-0617,2023-004U,2026-06-16T20:06:53.110080,13.11414329,.000224,87.8889,21.1379,84.8423,275.2960,0,U,55158,999,16581,-.76538E-3,-.259E-5,0
ONEWEB-0618,2023-004V,2026-06-16T12:42:37.904832,15.13133207,.00098341,86.9088,177.9017,303.9202,56.1102,0,U,55159,999,18216,.15627316E-3,.2803E-4,0
ONEWEB-0619,2023-004W,2026-06-16T19:05:24.154944,13.17649649,.000193,87.9143,5.9261,74.9057,285.2288,0,U,55160,999,16754,-.11678E-3,-.32E-6,0
ONEWEB-0620,2023-004X,2026-06-16T19:59:32.665344,13.11413036,.0001877,87.8884,21.1477,94.0747,266.0595,0,U,55161,999,16578,-.16836E-3,-.47E-6,0
ONEWEB-0621,2023-004Y,2026-06-16T20:38:36.542688,13.11417974,.0001999,87.8897,21.1312,80.9909,279.1445,0,U,55162,999,16576,-.14465E-2,-.5E-5,0
ONEWEB-0622,2023-004Z,2026-06-16T20:45:56.500128,13.11419641,.0002549,87.8897,21.1326,88.5374,271.6046,0,U,55163,999,16575,-.48932E-3,-.161E-5,0
ONEWEB-0623,2023-004AA,2026-06-16T18:58:06.024000,13.17649748,.0002516,87.9130,5.9575,77.0789,283.0623,0,U,55164,999,16753,-.42277E-4,-.4E-7,0
ONEWEB-0624,2023-004AB,2026-06-16T17:42:12.292128,13.12927380,.000188,87.8945,350.6746,88.2845,271.8499,0,U,55165,999,16801,.78347E-3,.297E-5,0
ONEWEB-0625,2023-004AC,2026-06-16T18:43:31.978272,13.17649257,.0001688,87.9134,5.9553,85.1698,274.9626,0,U,55166,999,16752,.18679E-3,.85E-6,0
ONEWEB-0626,2023-004AD,2026-06-16T20:18:18.226656,13.17649696,.000188,87.9131,5.9418,101.6525,258.4818,0,U,55167,999,16753,.11041E-3,.56E-6,0
ONEWEB-0627,2023-004AE,2026-06-16T20:01:16.838688,13.17647673,.0002293,87.9131,5.9446,80.8168,279.3222,0,U,55168,999,16753,.42568E-4,.29E-6,0
ONEWEB-0628,2023-004AF,2026-06-16T19:04:59.062656,13.12445360,.0002344,87.8947,350.7310,77.8818,282.2573,0,U,55169,999,16798,.89189E-3,.334E-5,0
ONEWEB-0629,2023-004AG,2026-06-16T13:57:59.584032,13.17647779,.0001899,87.9131,5.9910,77.8948,282.2396,0,U,55170,999,16750,-.86428E-5,.1E-6,0
ONEWEB-0631,2023-004AH,2026-06-16T17:19:49.470240,13.18685372,.0002239,87.9168,335.5279,102.2155,257.9228,0,U,55171,999,16961,.77611E-4,.44E-6,0
ONEWEB-0709,2023-004AJ,2026-06-16T19:44:55.137696,13.11415005,.0001755,87.8883,21.1519,114.2614,245.8698,0,U,55172,999,16582,.11971E-2,.437E-5,0
ONEWEB-0710,2023-004AK,2026-06-16T19:46:42.024864,13.17650224,.0002009,87.9131,5.9381,87.2723,272.8638,0,U,55173,999,16753,.579E-4,.35E-6,0
ONEWEB-0711,2023-004AL,2026-06-16T20:53:16.651968,13.11420882,.0002545,87.8888,21.1298,81.2415,278.9001,0,U,55174,999,16579,.22986E-3,.94E-6,0
ONEWEB-0713,2023-004AM,2026-06-16T21:20:08.971008,13.11416623,.0002176,87.8889,21.1277,83.0941,277.0435,0,U,55175,999,16578,.15405E-2,.559E-5,0
ONEWEB-0715,2023-004AN,2026-06-16T21:12:48.674016,13.11418795,.000205,87.8889,21.1294,105.2492,254.8862,0,U,55176,999,16582,.14459E-2,.525E-5,0
ONEWEB-0716,2023-004AP,2026-06-16T19:36:58.887936,13.17649522,.0001628,87.9132,5.9421,85.5054,274.6264,0,U,55177,999,16753,-.81585E-4,-.19E-6,0
ONEWEB-0717,2023-004AQ,2026-06-16T19:12:41.196384,13.17648963,.0002427,87.9142,5.9327,89.2839,270.8570,0,U,55178,999,16758,-.10901E-3,-.29E-6,0
ONEWEB-0719,2023-004AR,2026-06-16T19:27:16.406784,13.17648661,.0001752,87.9141,5.9114,82.4852,277.6478,0,U,55179,999,16753,-.12128E-3,-.34E-6,0
ONEWEB-0530,2023-029A,2026-06-16T17:04:03.574272,13.20771231,.000232,87.9184,274.5640,91.6509,268.4890,0,U,55796,999,16108,.12737E-3,.65E-6,0
ONEWEB-0534,2023-029B,2026-06-16T20:25:15.578400,13.20771469,.0001852,87.9186,274.5366,100.5955,259.5387,0,U,55797,999,16110,.52054E-4,.34E-6,0
ONEWEB-0556,2023-029C,2026-06-16T16:56:46.385952,13.20773536,.0001616,87.9185,274.5650,75.0913,285.0399,0,U,55798,999,16108,.67882E-4,.41E-6,0
ONEWEB-0562,2023-029D,2026-06-16T20:15:33.573312,13.20770604,.0002291,87.9184,274.5182,79.0479,281.0912,0,U,55799,999,16110,.39124E-4,.29E-6,0
ONEWEB-0563,2023-029E,2026-06-16T20:08:18.443904,13.20735922,.0001097,87.9183,274.5497,95.5578,264.5681,0,U,55800,999,16109,.18224E-1,.7425E-4,0
ONEWEB-0564,2023-029F,2026-06-16T18:09:30.786912,13.20771035,.0002143,87.9185,274.5395,90.4027,269.7352,0,U,55801,999,16109,-.12867E-3,-.39E-6,0
ONEWEB-0638,2023-029G,2026-06-16T20:38:46.393152,13.14504567,.000175,87.8955,289.8169,83.1332,276.9997,0,U,55802,999,15935,.54873E-3,.216E-5,0
ONEWEB-0639,2023-029H,2026-06-16T15:40:04.859328,13.19725593,.0001276,87.9170,305.0823,127.8439,232.2809,0,U,55803,999,15883,.23253E-3,.106E-5,0
