ONEWEB-0616             
1 55157U 23004T   26167.83929108  .00000111  00000+0  25349-3 0  9992
2 55157  87.9133   5.9370 0000976  76.3084 283.8156 13.17648808167654
ONEWEB-0617             
1 55158U 23004U   26167.83811470 -.00000259  00000+0 -76538-3 0  9996
2 55158  87.8889  21.1379 0002240  84.8423 275.2960 13.11414329165815
ONEWEB-0618             
1 55159U 23004V   26167.52960538  .00002803  00000+0  15627-3 0  9990
2 55159  86.9088 177.9017 0009834 303.9202  56.1102 15.13133207182160
ONEWEB-0619             
1 55160U 23004W   26167.79541846 -.00000032  00000+0 -11678-3 0  9994
2 55160  87.9143   5.9261 0001930  74.9057 285.2288 13.17649649167547
ONEWEB-0620             
1 55161U 23004X   26167.83301696 -.00000047  00000+0 -16836-3 0  9994
2 55161  87.8884  21.1477 0001877  94.0747 266.0595 13.11413036165782
ONEWEB-0621             
1 55162U 23004Y   26167.86014517 -.00000500  00000+0 -14465-2 0  9990
2 55162  87.8897  21.1312 0001999  80.9909 279.1445 13.11417974165766
ONEWEB-0622             
1 55163U 23004Z   26167.86523727 -.00000161  00000+0 -48932-3 0  9999
2 55163  87.8897  21.1326 0002549  88.5374 271.6046 13.11419641165750
ONEWEB-0623             
1 55164U 23004AA  26167.79034750 -.00000004  00000+0 -42277-4 0  9998
2 55164  87.9130   5.9575 0002516  77.0789 283.0623 13.17649748167530
ONEWEB-0624             
1 55165U 23004AB  26167.73764227  .00000297  00000+0  78347-3 0  9990
2 55165  87.8945 350.6746 0001880  88.2845 271.8499 13.12927380168010
ONEWEB-0625             
1 55166U 23004AC  26167.78023123  .00000085  00000+0  18679-3 0  9996
2 55166  87.9134   5.9553 0001688  85.1698 274.9626 13.17649257167526
ONEWEB-0626             
1 55167U 23004AD  26167.84604429  .00000056  00000+0  11041-3 0  9992
2 55167  87.9131   5.9418 0001880 101.6525 258.4818 13.17649696167539
ONEWEB-0627             
1 55168U 23004AE  26167.83422267  .00000029  00000+0  42568-4 0  9999
2 55168  87.9131   5.9446 0002293  80.8168 279.3222 13.17647673167535
ONEWEB-0628             
1 55169U 23004AF  26167.79512804  .00000334  00000+0  89189-3 0  9990
2 55169  87.8947 350.7310 0002344  77.8818 282.2573 13.12445360167981
ONEWEB-0629             
1 55170U 23004AG  26167.58193963  .00000010  00000+0 -86428-5 0  9997
2 55170  87.9131   5.9910 0001899  77.8948 282.2396 13.17647779167506
ONEWEB-0631             
1 55171U 23004AH  26167.72210035  .00000044  00000+0  77611-4 0  9993
2 55171  87.9168 335.5279 0002239 102.2155 257.9228 13.18685372169618
ONEWEB-0709             
1 55172U 23004AJ  26167.82286039  .00000437  00000+0  11971-2 0  9993
2 55172  87.8883  21.1519 0001755 114.2614 245.8698 13.11415005165825
ONEWEB-0710             
1 55173U 23004AK  26167.82409751  .00000035  00000+0  57900-4 0  9990
2 55173  87.9131   5.9381 0002009  87.2723 272.8638 13.17650224167537
ONEWEB-0711             
1 55174U 23004AL  26167.87033162  .00000094  00000+0  22986-3 0  9995
2 55174  87.8888  21.1298 0002545  81.2415 278.9001 13.11420882165796
ONEWEB-0713             
1 55175U 23004AM  26167.88899272  .00000559  00000+0  15405-2 0  9992
2 55175  87.8889  21.1277 0002176  83.0941 277.0435 13.11416623165787
ONEWEB-0715             
1 55176U 23004AN  26167.88389669  .00000525  00000+0  14459-2 0  9998
2 55176  87.8889  21.1294 0002050 105.2492 254.8862 13.11418795165820
ONEWEB-0716             
1 55177U 23004AP  26167.81734824 -.00000019  00000+0 -81585-4 0  9995
2 55177  87.9132   5.9421 0001628  85.5054 274.6264 13.17649522167535
ONEWEB-0717             
1 55178U 23004AQ  26167.80047681 -.00000029  00000+0 -10901-3 0  9997
2 55178  87.9142   5.9327 0002427  89.2839 270.8570 13.17648963167583
ONEWEB-0719             
1 55179U 23004AR  26167.81060656 -.00000034  00000+0 -12128-3 0  9995
2 55179  87.9141   5.9114 0001752  82.4852 277.6478 13.17648661167539
ONEWEB-0530             
1 55796U 23029A   26167.71115248  .00000065  00000+0  12737-3 0  9992
2 55796  87.9184 274.5640 0002320  91.6509 268.4890 13.20771231161086
ONEWEB-0534             
1 55797U 23029B   26167.85087475  .00000034  00000+0  52054-4 0  9991
2 55797  87.9186 274.5366 0001852 100.5955 259.5387 13.20771469161106
ONEWEB-0556             
1 55798U 23029C   26167.70609243  .00000041  00000+0  67882-4 0  9992
2 55798  87.9185 274.5650 0001616  75.0913 285.0399 13.20773536161081
ONEWEB-0562             
1 55799U 23029D   26167.84413858  .00000029  00000+0  39124-4 0  9997
2 55799  87.9184 274.5182 0002291  79.0479 281.0912 13.20770604161105
ONEWEB-0563             
1 55800U 23029E   26167.83910236  .00007425  00000+0  18224-1 0  9993
2 55800  87.9183 274.5497 0001097  95.5578 264.5681 13.20735922161093
ONEWEB-0564             
1 55801U 23029F   26167.75660633 -.00000039  00000+0 -12867-3 0  9993
2 55801  87.9185 274.5395 0002143  90.4027 269.7352 13.20771035161096
ONEWEB-0638             
1 55802U 23029G   26167.86025918  .00000216  00000+0  54873-3 0  9995
2 55802  87.8955 289.8169 0001750  83.1332 276.9997 13.14504567159358
ONEWEB-0639             
1 55803U 23029H   26167.65283402  .00000106  00000+0  23253-3 0  9993
2 55803  87.9170 305.0823 0001276 127.8439 232.2809 13.19725593158832
